{"type": "FeatureCollection", "features": [ {"type": "Feature", "properties": {"norad_id": 34529, "name": "IRIDIUM 33 DEB", "group": "iridium-33-debris", "lat": 7.513639498394504, "lon": 31.022567555347674, "alt_km": 761.5755493453762, "timestamp": "2025-12-24T03:53:30.032128+00:00", "meta": {"OBJECT_NAME": "IRIDIUM 33 DEB", "OBJECT_ID": "1997-051HW", "EPOCH": "2025-12-23T12:51:13.501152", "MEAN_MOTION": 14.4062425, "ECCENTRICITY": 0.0006028, "INCLINATION": 86.363, "RA_OF_ASC_NODE": 30.809, "ARG_OF_PERICENTER": 146.0687, "MEAN_ANOMALY": 214.0899, "EPHEMERIS_TYPE": 0, "CLASSIFICATION_TYPE": "U", "NORAD_CAT_ID": 34529, "ELEMENT_SET_NO": 999, "REV_AT_EPOCH": 88297, "BSTAR": 0.00011429, "MEAN_MOTION_DOT": 3.84e-06, "MEAN_MOTION_DDOT": 0}, "tle": {"line1": "1 34529U 97051HW  25357.53557293  .00000384  00000+0  11429-3 0  9990", "line2": "2 34529  86.3630  30.8090 0006028 146.0687 214.0899 14.40624250882974"}}, "geometry": {"type": "Point", "coordinates": [31.022567555347674, 7.513639498394504]}}, {"type": "Feature", "properties": {"norad_id": 34538, "name": "IRIDIUM 33 DEB", "group": "iridium-33-debris", "lat": -70.29005345926103, "lon": -9.921472137050545, "alt_km": 734.1451110242124, "timestamp": "2025-12-24T03:53:30.032139+00:00", "meta": {"OBJECT_NAME": "IRIDIUM 33 DEB", "OBJECT_ID": "1997-051JF", "EPOCH": "2025-12-23T18:30:56.030112", "MEAN_MOTION": 14.42708965, "ECCENTRICITY": 0.0031962, "INCLINATION": 86.2765, "RA_OF_ASC_NODE": 0.7229, "ARG_OF_PERICENTER": 289.7763, "MEAN_ANOMALY": 131.869, "EPHEMERIS_TYPE": 0, "CLASSIFICATION_TYPE": "U", "NORAD_CAT_ID": 34538, "ELEMENT_SET_NO": 999, "REV_AT_EPOCH": 87915, "BSTAR": 0.00089053, "MEAN_MOTION_DOT": 3e-05, "MEAN_MOTION_DDOT": 0}, "tle": {"line1": "1 34538U 97051JF  25357.77148183  .00003000  00000+0  89053-3 0  9996", "line2": "2 34538  86.2765   0.7229 0031962 289.7763 131.8690 14.42708965879156"}}, "geometry": {"type": "Point", "coordinates": [-9.921472137050545, -70.29005345926103]}}, {"type": "Feature", "properties": {"norad_id": 34540, "name": "IRIDIUM 33 DEB", "group": "iridium-33-debris", "lat": -72.18184833481273, "lon": 133.96083747121085, "alt_km": 659.2083456877526, "timestamp": "2025-12-24T03:53:30.032149+00:00", "meta": {"OBJECT_NAME": "IRIDIUM 33 DEB", "OBJECT_ID": "1997-051JH", "EPOCH": "2025-12-22T19:58:08.744160", "MEAN_MOTION": 14.75512106, "ECCENTRICITY": 0.00179406, "INCLINATION": 86.3119, "RA_OF_ASC_NODE": 302.992, "ARG_OF_PERICENTER": 125.3836, "MEAN_ANOMALY": 266.2203, "EPHEMERIS_TYPE": 0, "CLASSIFICATION_TYPE": "U", "NORAD_CAT_ID": 34540, "ELEMENT_SET_NO": 999, "REV_AT_EPOCH": 89170, "BSTAR": 0.0015814186, "MEAN_MOTION_DOT": 0.00010821, "MEAN_MOTION_DDOT": 0}, "tle": {"line1": "1 34540U 97051JH  25356.83204565  .00010821  00000+0  15814-2 0  9994", "line2": "2 34540  86.3119 302.9920 0017940 125.3836 266.2203 14.75512106891708"}}, "geometry": {"type": "Point", "coordinates": [133.96083747121085, -72.18184833481273]}}, {"type": "Feature", "properties": {"norad_id": 34648, "name": "IRIDIUM 33 DEB", "group": "iridium-33-debris", "lat": -57.99404941407359, "lon": -88.46472774836192, "alt_km": 758.7262663851325, "timestamp": "2025-12-24T03:53:30.032160+00:00", "meta": {"OBJECT_NAME": "IRIDIUM 33 DEB", "OBJECT_ID": "1997-051JZ", "EPOCH": "2025-12-23T17:57:25.668864", "MEAN_MOTION": 14.11798527, "ECCENTRICITY": 0.0178936, "INCLINATION": 86.3896, "RA_OF_ASC_NODE": 277.5002, "ARG_OF_PERICENTER": 264.3134, "MEAN_ANOMALY": 93.7623, "EPHEMERIS_TYPE": 0, "CLASSIFICATION_TYPE": "U", "NORAD_CAT_ID": 34648, "ELEMENT_SET_NO": 999, "REV_AT_EPOCH": 85116, "BSTAR": 0.0063257, "MEAN_MOTION_DOT": 0.00013439, "MEAN_MOTION_DDOT": 0}, "tle": {"line1": "1 34648U 97051JZ  25357.74821376  .00013439  00000+0  63257-2 0  9991", "line2": "2 34648  86.3896 277.5002 0178936 264.3134  93.7623 14.11798527851163"}}, "geometry": {"type": "Point", "coordinates": [-88.46472774836192, -57.99404941407359]}}, {"type": "Feature", "properties": {"norad_id": 34651, "name": "IRIDIUM 33 DEB", "group": "iridium-33-debris", "lat": -44.49388036927853, "lon": -40.62023267813498, "alt_km": 755.2045627861917, "timestamp": "2025-12-24T03:53:30.032170+00:00", "meta": {"OBJECT_NAME": "IRIDIUM 33 DEB", "OBJECT_ID": "1997-051KC", "EPOCH": "2025-12-19T16:44:48.420096", "MEAN_MOTION": 14.25922062, "ECCENTRICITY": 0.01422464, "INCLINATION": 86.2827, "RA_OF_ASC_NODE": 137.6175, "ARG_OF_PERICENTER": 181.9677, "MEAN_ANOMALY": 178.0974, "EPHEMERIS_TYPE": 0, "CLASSIFICATION_TYPE": "U", "NORAD_CAT_ID": 34651, "ELEMENT_SET_NO": 999, "REV_AT_EPOCH": 85995, "BSTAR": 0.0022061693, "MEAN_MOTION_DOT": 5.865e-05, "MEAN_MOTION_DDOT": 0}, "tle": {"line1": "1 34651U 97051KC  25353.69778264  .00005865  00000+0  22062-2 0  9995", "line2": "2 34651  86.2827 137.6175 0142246 181.9677 178.0974 14.25922062859957"}}, "geometry": {"type": "Point", "coordinates": [-40.62023267813498, -44.49388036927853]}}, {"type": "Feature", "properties": {"norad_id": 34652, "name": "IRIDIUM 33 DEB", "group": "iridium-33-debris", "lat": -38.92373769777037, "lon": -28.05490095205983, "alt_km": 684.983544679294, "timestamp": "2025-12-24T03:53:30.032180+00:00", "meta": {"OBJECT_NAME": "IRIDIUM 33 DEB", "OBJECT_ID": "1997-051KD", "EPOCH": "2025-12-22T22:37:56.807904", "MEAN_MOTION": 14.62145244, "ECCENTRICITY": 0.002545, "INCLINATION": 86.3316, "RA_OF_ASC_NODE": 335.4576, "ARG_OF_PERICENTER": 260.7991, "MEAN_ANOMALY": 126.9649, "EPHEMERIS_TYPE": 0, "CLASSIFICATION_TYPE": "U", "NORAD_CAT_ID": 34652, "ELEMENT_SET_NO": 999, "REV_AT_EPOCH": 88633, "BSTAR": 0.00098275, "MEAN_MOTION_DOT": 4.986e-05, "MEAN_MOTION_DDOT": 0}, "tle": {"line1": "1 34652U 97051KD  25356.94301861  .00004986  00000+0  98275-3 0  9995", "line2": "2 34652  86.3316 335.4576 0025450 260.7991 126.9649 14.62145244886330"}}, "geometry": {"type": "Point", "coordinates": [-28.05490095205983, -38.92373769777037]}}, {"type": "Feature", "properties": {"norad_id": 34690, "name": "IRIDIUM 33 DEB", "group": "iridium-33-debris", "lat": -75.98475172569674, "lon": -133.2701241679432, "alt_km": 716.928529646003, "timestamp": "2025-12-24T03:53:30.032190+00:00", "meta": {"OBJECT_NAME": "IRIDIUM 33 DEB", "OBJECT_ID": "1997-051KM", "EPOCH": "2025-12-23T02:05:55.177152", "MEAN_MOTION": 14.55131538, "ECCENTRICITY": 0.00096335, "INCLINATION": 86.3772, "RA_OF_ASC_NODE": 32.4934, "ARG_OF_PERICENTER": 354.9815, "MEAN_ANOMALY": 35.335, "EPHEMERIS_TYPE": 0, "CLASSIFICATION_TYPE": "U", "NORAD_CAT_ID": 34690, "ELEMENT_SET_NO": 999, "REV_AT_EPOCH": 88245, "BSTAR": 0.00039542617, "MEAN_MOTION_DOT": 1.728e-05, "MEAN_MOTION_DDOT": 0}, "tle": {"line1": "1 34690U 97051KM  25357.08744418  .00001728  00000+0  39543-3 0  9996", "line2": "2 34690  86.3772  32.4934 0009633 354.9815  35.3350 14.55131538882450"}}, "geometry": {"type": "Point", "coordinates": [-133.2701241679432, -75.98475172569674]}}, {"type": "Feature", "properties": {"norad_id": 34693, "name": "IRIDIUM 33 DEB", "group": "iridium-33-debris", "lat": 69.48558901953955, "lon": 108.19571875962575, "alt_km": 465.66063611139, "timestamp": "2025-12-24T03:53:30.032202+00:00", "meta": {"OBJECT_NAME": "IRIDIUM 33 DEB", "OBJECT_ID": "1997-051KQ", "EPOCH": "2025-12-23T19:41:55.329792", "MEAN_MOTION": 15.30604195, "ECCENTRICITY": 0.0010331, "INCLINATION": 86.3059, "RA_OF_ASC_NODE": 298.3092, "ARG_OF_PERICENTER": 33.2484, "MEAN_ANOMALY": 356.9991, "EPHEMERIS_TYPE": 0, "CLASSIFICATION_TYPE": "U", "NORAD_CAT_ID": 34693, "ELEMENT_SET_NO": 999, "REV_AT_EPOCH": 89084, "BSTAR": 0.0045105, "MEAN_MOTION_DOT": 0.00135771, "MEAN_MOTION_DDOT": 0}, "tle": {"line1": "1 34693U 97051KQ  25357.82077928  .00135771  00000+0  45105-2 0  9992", "line2": "2 34693  86.3059 298.3092 0010331  33.2484 356.9991 15.30604195890848"}}, "geometry": {"type": "Point", "coordinates": [108.19571875962575, 69.48558901953955]}}, {"type": "Feature", "properties": {"norad_id": 34696, "name": "IRIDIUM 33 DEB", "group": "iridium-33-debris", "lat": 83.28716214498078, "lon": 167.66904634552895, "alt_km": 624.1558475702805, "timestamp": "2025-12-24T03:53:30.032212+00:00", "meta": {"OBJECT_NAME": "IRIDIUM 33 DEB", "OBJECT_ID": "1997-051KT", "EPOCH": "2025-12-23T20:04:25.434336", "MEAN_MOTION": 14.6559156, "ECCENTRICITY": 0.0073895, "INCLINATION": 86.1849, "RA_OF_ASC_NODE": 22.3578, "ARG_OF_PERICENTER": 130.1788, "MEAN_ANOMALY": 48.2218, "EPHEMERIS_TYPE": 0, "CLASSIFICATION_TYPE": "U", "NORAD_CAT_ID": 34696, "ELEMENT_SET_NO": 999, "REV_AT_EPOCH": 86835, "BSTAR": 0.0041353, "MEAN_MOTION_DOT": 0.00023449, "MEAN_MOTION_DDOT": 0}, "tle": {"line1": "1 34696U 97051KT  25357.83640549  .00023449  00000+0  41353-2 0  9990", "line2": "2 34696  86.1849  22.3578 0073895 130.1788  48.2218 14.65591560868350"}}, "geometry": {"type": "Point", "coordinates": [167.66904634552895, 83.28716214498078]}}, {"type": "Feature", "properties": {"norad_id": 34765, "name": "IRIDIUM 33 DEB", "group": "iridium-33-debris", "lat": 43.94263518436524, "lon": 31.398163690918516, "alt_km": 760.6419566068744, "timestamp": "2025-12-24T03:53:30.032223+00:00", "meta": {"OBJECT_NAME": "IRIDIUM 33 DEB", "OBJECT_ID": "1997-051LJ", "EPOCH": "2025-12-23T02:58:27.844896", "MEAN_MOTION": 14.40490027, "ECCENTRICITY": 0.00166531, "INCLINATION": 86.3383, "RA_OF_ASC_NODE": 28.3053, "ARG_OF_PERICENTER": 176.053, "MEAN_ANOMALY": 247.6854, "EPHEMERIS_TYPE": 0, "CLASSIFICATION_TYPE": "U", "NORAD_CAT_ID": 34765, "ELEMENT_SET_NO": 999, "REV_AT_EPOCH": 87763, "BSTAR": 0.00035770807, "MEAN_MOTION_DOT": 1.159e-05, "MEAN_MOTION_DDOT": 0}, "tle": {"line1": "1 34765U 97051LJ  25357.12393339  .00001159  00000+0  35771-3 0  9993", "line2": "2 34765  86.3383  28.3053 0016653 176.0530 247.6854 14.40490027877630"}}, "geometry": {"type": "Point", "coordinates": [31.398163690918516, 43.94263518436524]}}]}